start=new Date('2022-12-31T00:00:00.000Z').valueOf();
sats=[{"NORAD_CAT_ID":"47773","LAUNCH_DATE":"2021-03-04","APOAPSIS":"548.557","REF_FRAME":"TEME","MEAN_MOTION_DDOT":"0.0000000000000","PERIOD":"95.593","DECAY_DATE":null,"ARG_OF_PERICENTER":"43.4755","PERIAPSIS":"545.920","FILE":"3726982","BSTAR":"0.00025554000000","OBJECT_NAME":"STARLINK-2196","RA_OF_ASC_NODE":"52.0645","CENTER_NAME":"EARTH","MEAN_MOTION_DOT":"0.00003526","OBJECT_TYPE":"PAYLOAD","EPHEMERIS_TYPE":"0","MEAN_ANOMALY":"316.6383","REV_AT_EPOCH":"10134","ELEMENT_SET_NO":"999","ECCENTRICITY":"0.00019040","SEMIMAJOR_AXIS":"6925.374","MEAN_ELEMENT_THEORY":"SGP4","GP_ID":"221793696","OBJECT_ID":"2021-017BD","TLE_LINE2":"2 47773  53.0536  52.0645 0001904  43.4755 316.6383 15.06391850101343","INCLINATION":"53.0536","TLE_LINE1":"1 47773U 21017BD  22364.56710373  .00003526  00000-0  25554-3 0  9998","SITE":"AFETR","COUNTRY_CODE":"US","MEAN_MOTION":"15.06391850","TIME_SYSTEM":"UTC","CLASSIFICATION_TYPE":"U","EPOCH":"2022-12-30T13:36:37.762272","RCS_SIZE":"LARGE"},{"LAUNCH_DATE":"2021-03-04","NORAD_CAT_ID":"47774","MEAN_MOTION_DDOT":"0.0000000000000","PERIOD":"95.592","APOAPSIS":"548.909","REF_FRAME":"TEME","OBJECT_NAME":"STARLINK-2197","BSTAR":"0.00016974000000","RA_OF_ASC_NODE":"52.3778","DECAY_DATE":null,"FILE":"3726810","PERIAPSIS":"545.532","ARG_OF_PERICENTER":"34.1955","EPHEMERIS_TYPE":"0","CENTER_NAME":"EARTH","OBJECT_TYPE":"PAYLOAD","MEAN_MOTION_DOT":"0.00002247","ELEMENT_SET_NO":"999","REV_AT_EPOCH":"10197","MEAN_ANOMALY":"325.9191","OBJECT_ID":"2021-017BE","GP_ID":"221786461","SEMIMAJOR_AXIS":"6925.356","ECCENTRICITY":"0.00024380","MEAN_ELEMENT_THEORY":"SGP4","SITE":"AFETR","TLE_LINE1":"1 47774U 21017BE  22364.49706182  .00002247  00000-0  16974-3 0  9999","COUNTRY_CODE":"US","INCLINATION":"53.0557","TLE_LINE2":"2 47774  53.0557  52.3778 0002438  34.1955 325.9191 15.06397653101975","CLASSIFICATION_TYPE":"U","RCS_SIZE":"LARGE","EPOCH":"2022-12-30T11:55:46.141248","MEAN_MOTION":"15.06397653","TIME_SYSTEM":"UTC"},{"TLE_LINE2":"2 47775  53.0548  52.6244 0001666  66.4590 293.6574 15.06402171102016","INCLINATION":"53.0548","SITE":"AFETR","TLE_LINE1":"1 47775U 21017BF  22364.44177449  .00007031  00000-0  49040-3 0  9999","COUNTRY_CODE":"US","MEAN_MOTION":"15.06402171","TIME_SYSTEM":"UTC","CLASSIFICATION_TYPE":"U","EPOCH":"2022-12-30T10:36:09.315936","RCS_SIZE":"LARGE","REV_AT_EPOCH":"10201","MEAN_ANOMALY":"293.6574","ELEMENT_SET_NO":"999","ECCENTRICITY":"0.00016660","SEMIMAJOR_AXIS":"6925.342","MEAN_ELEMENT_THEORY":"SGP4","GP_ID":"221786711","OBJECT_ID":"2021-017BF","DECAY_DATE":null,"ARG_OF_PERICENTER":"66.4590","PERIAPSIS":"546.053","FILE":"3726810","BSTAR":"0.00049040000000","OBJECT_NAME":"STARLINK-2198","RA_OF_ASC_NODE":"52.6244","CENTER_NAME":"EARTH","MEAN_MOTION_DOT":"0.00007031","OBJECT_TYPE":"PAYLOAD","EPHEMERIS_TYPE":"0","NORAD_CAT_ID":"47775","LAUNCH_DATE":"2021-03-04","APOAPSIS":"548.361","REF_FRAME":"TEME","MEAN_MOTION_DDOT":"0.0000000000000","PERIOD":"95.592"},{"REV_AT_EPOCH":"10148","MEAN_ANOMALY":"327.5138","ELEMENT_SET_NO":"999","SEMIMAJOR_AXIS":"6925.379","ECCENTRICITY":"0.00022210","MEAN_ELEMENT_THEORY":"SGP4","OBJECT_ID":"2021-017BG","GP_ID":"221760560","INCLINATION":"53.0551","TLE_LINE2":"2 47776  53.0551  42.2076 0002221  32.5988 327.5138 15.06390192101484","SITE":"AFETR","TLE_LINE1":"1 47776U 21017BG  22364.53485010  .00002053  00000-0  15677-3 0  9994","COUNTRY_CODE":"US","MEAN_MOTION":"15.06390192","TIME_SYSTEM":"UTC","CLASSIFICATION_TYPE":"U","RCS_SIZE":"LARGE","EPOCH":"2022-12-30T12:50:11.048640","NORAD_CAT_ID":"47776","LAUNCH_DATE":"2021-03-04","APOAPSIS":"548.782","REF_FRAME":"TEME","MEAN_MOTION_DDOT":"0.0000000000000","PERIOD":"95.593","DECAY_DATE":null,"FILE":"3726653","PERIAPSIS":"545.705","ARG_OF_PERICENTER":"32.5988","OBJECT_NAME":"STARLINK-2209","BSTAR":"0.00015677000000","RA_OF_ASC_NODE":"42.2076","CENTER_NAME":"EARTH","OBJECT_TYPE":"PAYLOAD","MEAN_MOTION_DOT":"0.00002053","EPHEMERIS_TYPE":"0"},{"MEAN_MOTION_DDOT":"0.0000000000000","PERIOD":"95.592","APOAPSIS":"548.985","REF_FRAME":"TEME","LAUNCH_DATE":"2021-03-04","NORAD_CAT_ID":"47777","EPHEMERIS_TYPE":"0","CENTER_NAME":"EARTH","MEAN_MOTION_DOT":"0.00001407","OBJECT_TYPE":"PAYLOAD","BSTAR":"0.00011336000000","OBJECT_NAME":"STARLINK-2210","RA_OF_ASC_NODE":"42.1901","DECAY_DATE":null,"PERIAPSIS":"545.408","ARG_OF_PERICENTER":"32.5219","FILE":"3726810","GP_ID":"221786210","OBJECT_ID":"2021-017BH","ECCENTRICITY":"0.00025820","SEMIMAJOR_AXIS":"6925.331","MEAN_ELEMENT_THEORY":"SGP4","ELEMENT_SET_NO":"999","MEAN_ANOMALY":"327.5929","REV_AT_EPOCH":"10213","CLASSIFICATION_TYPE":"U","EPOCH":"2022-12-30T12:55:28.481376","RCS_SIZE":"LARGE","MEAN_MOTION":"15.06405570","TIME_SYSTEM":"UTC","TLE_LINE1":"1 47777U 21017BH  22364.53852409  .00001407  00000-0  11336-3 0  9995","SITE":"AFETR","COUNTRY_CODE":"US","TLE_LINE2":"2 47777  53.0549  42.1901 0002582  32.5219 327.5929 15.06405570102133","INCLINATION":"53.0549"},{"MEAN_MOTION_DDOT":"0.0000000000000","PERIOD":"95.593","APOAPSIS":"548.659","REF_FRAME":"TEME","LAUNCH_DATE":"2021-03-04","NORAD_CAT_ID":"47778","EPHEMERIS_TYPE":"0","CENTER_NAME":"EARTH","MEAN_MOTION_DOT":"0.00003069","OBJECT_TYPE":"PAYLOAD","BSTAR":"0.00022491000000","OBJECT_NAME":"STARLINK-2211","RA_OF_ASC_NODE":"42.3387","DECAY_DATE":null,"ARG_OF_PERICENTER":"39.6632","PERIAPSIS":"545.825","FILE":"3726653","GP_ID":"221760559","OBJECT_ID":"2021-017BJ","ECCENTRICITY":"0.00020460","SEMIMAJOR_AXIS":"6925.377","MEAN_ELEMENT_THEORY":"SGP4","ELEMENT_SET_NO":"999","REV_AT_EPOCH":"10148","MEAN_ANOMALY":"320.4506","CLASSIFICATION_TYPE":"U","EPOCH":"2022-12-30T12:07:43.527360","RCS_SIZE":"LARGE","MEAN_MOTION":"15.06390841","TIME_SYSTEM":"UTC","TLE_LINE1":"1 47778U 21017BJ  22364.50536490  .00003069  00000-0  22491-3 0  9992","SITE":"AFETR","COUNTRY_CODE":"US","TLE_LINE2":"2 47778  53.0550  42.3387 0002046  39.6632 320.4506 15.06390841101482","INCLINATION":"53.0550"},{"RA_OF_ASC_NODE":"22.1223","BSTAR":"0.00199300000000","OBJECT_NAME":"STARLINK-2212","PERIAPSIS":"516.367","ARG_OF_PERICENTER":"69.4478","FILE":"3726980","DECAY_DATE":null,"EPHEMERIS_TYPE":"0","MEAN_MOTION_DOT":"0.00038681","OBJECT_TYPE":"PAYLOAD","CENTER_NAME":"EARTH","LAUNCH_DATE":"2021-03-04","NORAD_CAT_ID":"47779","PERIOD":"94.984","MEAN_MOTION_DDOT":"0.0000000000000","REF_FRAME":"TEME","APOAPSIS":"519.289","COUNTRY_CODE":"US","SITE":"AFETR","TLE_LINE1":"1 47779U 21017BK  22364.52634485  .00038681  00000-0  19930-2 0  9999","TLE_LINE2":"2 47779  53.0538  22.1223 0002118  69.4478 290.6742 15.16039004101777","INCLINATION":"53.0538","EPOCH":"2022-12-30T12:37:56.195040","RCS_SIZE":"LARGE","CLASSIFICATION_TYPE":"U","TIME_SYSTEM":"UTC","MEAN_MOTION":"15.16039004","ELEMENT_SET_NO":"999","MEAN_ANOMALY":"290.6742","REV_AT_EPOCH":"10177","GP_ID":"221793705","OBJECT_ID":"2021-017BK","MEAN_ELEMENT_THEORY":"SGP4","ECCENTRICITY":"0.00021180","SEMIMAJOR_AXIS":"6895.963"},{"LAUNCH_DATE":"2021-03-04","NORAD_CAT_ID":"47780","MEAN_MOTION_DDOT":"0.0000000000000","PERIOD":"95.592","APOAPSIS":"548.780","REF_FRAME":"TEME","OBJECT_NAME":"STARLINK-2213","BSTAR":"0.00018895000000","RA_OF_ASC_NODE":"42.8189","DECAY_DATE":null,"FILE":"3726810","PERIAPSIS":"545.641","ARG_OF_PERICENTER":"35.4504","EPHEMERIS_TYPE":"0","CENTER_NAME":"EARTH","OBJECT_TYPE":"PAYLOAD","MEAN_MOTION_DOT":"0.00002534","ELEMENT_SET_NO":"999","MEAN_ANOMALY":"324.6636","REV_AT_EPOCH":"10214","OBJECT_ID":"2021-017BL","GP_ID":"221785460","SEMIMAJOR_AXIS":"6925.346","ECCENTRICITY":"0.00022660","MEAN_ELEMENT_THEORY":"SGP4","TLE_LINE1":"1 47780U 21017BL  22364.39846598  .00002534  00000-0  18895-3 0  9994","SITE":"AFETR","COUNTRY_CODE":"US","INCLINATION":"53.0554","TLE_LINE2":"2 47780  53.0554  42.8189 0002266  35.4504 324.6636 15.06400940102146","CLASSIFICATION_TYPE":"U","RCS_SIZE":"LARGE","EPOCH":"2022-12-30T09:33:47.460672","MEAN_MOTION":"15.06400940","TIME_SYSTEM":"UTC"},{"FILE":"3726810","PERIAPSIS":"545.905","ARG_OF_PERICENTER":"59.8570","DECAY_DATE":null,"RA_OF_ASC_NODE":"42.3678","OBJECT_NAME":"STARLINK-2223","BSTAR":"-0.00004980400000","OBJECT_TYPE":"PAYLOAD","MEAN_MOTION_DOT":"-0.00001023","CENTER_NAME":"EARTH","EPHEMERIS_TYPE":"0","NORAD_CAT_ID":"47781","LAUNCH_DATE":"2021-03-04","REF_FRAME":"TEME","APOAPSIS":"548.639","PERIOD":"95.593","MEAN_MOTION_DDOT":"0.0000000000000","INCLINATION":"53.0553","TLE_LINE2":"2 47781  53.0553  42.3678 0001974  59.8570 300.2615 15.06380794102110","COUNTRY_CODE":"US","SITE":"AFETR","TLE_LINE1":"1 47781U 21017BM  22364.49800009 -.00001023  00000-0 -49804-4 0  9992","TIME_SYSTEM":"UTC","MEAN_MOTION":"15.06380794","RCS_SIZE":"LARGE","EPOCH":"2022-12-30T11:57:07.207776","CLASSIFICATION_TYPE":"U","MEAN_ANOMALY":"300.2615","REV_AT_EPOCH":"10211","ELEMENT_SET_NO":"999","MEAN_ELEMENT_THEORY":"SGP4","SEMIMAJOR_AXIS":"6925.407","ECCENTRICITY":"0.00019740","OBJECT_ID":"2021-017BM","GP_ID":"221785710"},{"ELEMENT_SET_NO":"999","REV_AT_EPOCH":"10066","MEAN_ANOMALY":"304.6957","GP_ID":"221793387","OBJECT_ID":"2021-018A","MEAN_ELEMENT_THEORY":"SGP4","ECCENTRICITY":"0.00016320","SEMIMAJOR_AXIS":"6925.293","COUNTRY_CODE":"US","SITE":"AFETR","TLE_LINE1":"1 47787U 21018A   22364.71545881  .00020934  00000-0  14194-2 0  9990","TLE_LINE2":"2 47787  53.0549  81.3937 0001632  55.4186 304.6957 15.06418170100663","INCLINATION":"53.0549","EPOCH":"2022-12-30T17:10:15.641184","RCS_SIZE":"LARGE","CLASSIFICATION_TYPE":"U","TIME_SYSTEM":"UTC","MEAN_MOTION":"15.06418170","LAUNCH_DATE":"2021-03-11","NORAD_CAT_ID":"47787","PERIOD":"95.591","MEAN_MOTION_DDOT":"0.0000000000000","REF_FRAME":"TEME","APOAPSIS":"548.288","RA_OF_ASC_NODE":"81.3937","BSTAR":"0.00141940000000","OBJECT_NAME":"STARLINK-2257","PERIAPSIS":"546.028","ARG_OF_PERICENTER":"55.4186","FILE":"3726952","DECAY_DATE":null,"EPHEMERIS_TYPE":"0","MEAN_MOTION_DOT":"0.00020934","OBJECT_TYPE":"PAYLOAD","CENTER_NAME":"EARTH"}];
